NORAD_CAT_ID,OBJECT_NAME,OBJECT_TYPE,EPOCH,MEAN_MOTION,ECCENTRICITY,INCLINATION,RA_OF_ASC_NODE,ARG_OF_PERICENTER,MEAN_ANOMALY,BSTAR,MEAN_MOTION_DOT,MEAN_MOTION_DDOT,TLE_LINE0,TLE_LINE1,TLE_LINE2,SEMIMAJOR_AXIS,PERIOD,APOGEE,PERIGEE,DECAYED
53426.0,STARLINK-4558,PAYLOAD,2022-09-25 22:00:01,15.73260156,0.0002593999999999,53.2163,16.8121,14.5827,169.2485,-0.0014644,-0.00201856,0.0,0 STARLINK-4558,1 53426U 22097AQ  22268.91668981 -.00201856  00000-0 -14644-2 0  9993,2 53426  53.2163  16.8121 0002594  14.5827 169.2485 15.73260156  1303,6727.724,91.53,351.334,347.844,0.0
53426.0,STARLINK-4558,PAYLOAD,2022-09-26 10:00:00,15.73164788,0.0002491,53.2167,14.3397,18.5174,118.5541,0.00022849,0.00031521,0.0,0 STARLINK-4558,1 53426U 22097AQ  22269.41667824  .00031521  00000-0  22849-3 0  9999,2 53426  53.2167  14.3397 0002491  18.5174 118.5541 15.73164788  7861,6727.996,91.535,351.537,348.185,0.0
53426.0,STARLINK-4558,PAYLOAD,2022-09-26 14:00:01,15.73166186,0.0002602,53.2168,13.5136,19.0096,342.5107,0.00042827,0.00059832,0.0,0 STARLINK-4558,1 53426U 22097AQ  22269.58334491  .00059832  00000-0  42827-3 0  9991,2 53426  53.2168  13.5136 0002602  19.0096 342.5107 15.73166186  1301,6727.9919999999975,91.535,351.607,348.106,0.0
53426.0,STARLINK-4558,PAYLOAD,2022-09-26 22:00:00,15.73289019,0.0002785,53.2166,11.863,15.6457,74.792,-0.0011181,-0.0015531,0.0,0 STARLINK-4558,1 53426U 22097AQ  22269.91667824 -.00155310  00000-0 -11181-2 0  9995,2 53426  53.2166  11.8630 0002785  15.6457  74.7920 15.73289019  1302,6727.641,91.528,351.38,347.6330000000001,0.0
53426.0,STARLINK-4558,PAYLOAD,2022-09-27 14:00:01,15.73245553,0.000291,53.217,8.5727,13.6422,254.6652,-7.388e-05,-0.00011001,0.0,0 STARLINK-4558,1 53426U 22097AQ  22270.58334491 -.00011001  00000-0 -73880-4 0  9995,2 53426  53.2170   8.5727 0002910  13.6422 254.6652 15.73245553  8041,6727.765,91.531,351.588,347.673,0.0
53426.0,STARLINK-4558,PAYLOAD,2022-09-27 22:00:01,15.73254246,0.0002896,53.2165,6.9222,11.6518,345.7319,1.982e-05,2.166e-05,0.0,0 STARLINK-4558,1 53426U 22097AQ  22270.91668981  .00002166  00000-0  19820-4 0  9990,2 53426  53.2165   6.9222 0002896  11.6518 345.7319 15.73254246  1307,6727.741,91.53,351.55400000000014,347.657,0.0
53426.0,STARLINK-4558,PAYLOAD,2022-09-28 06:00:00,15.732077599999998,0.0002689,53.2167,5.2716,14.0771,72.1768,7.997600000000001e-05,0.00010621,0.0,0 STARLINK-4558,1 53426U 22097AQ  22271.25001157  .00010621  00000-0  79976-4 0  9997,2 53426  53.2167   5.2716 0002689  14.0771  72.1768 15.73207760  8155,6727.873000000001,91.533,351.547,347.92900000000014,0.0
53426.0,STARLINK-4558,PAYLOAD,2022-09-28 14:00:01,15.73222248,0.0002995,53.2167,3.6243,10.7349,164.4574,0.00015527,0.00021248,0.0,0 STARLINK-4558,1 53426U 22097AQ  22271.58334491  .00021248  00000-0  15527-3 0  9991,2 53426  53.2167   3.6243 0002995  10.7349 164.4574 15.73222248  1304,6727.831999999999,91.532,351.712,347.682,0.0
53426.0,STARLINK-4558,PAYLOAD,2022-09-28 22:00:00,15.73222236,0.0002965,53.2168,1.9738,8.7721,255.3578,-0.00040147,-0.00056656,0.0,0 STARLINK-4558,1 53426U 22097AQ  22271.91667824 -.00056656  00000-0 -40147-3 0  9996,2 53426  53.2168   1.9738 0002965   8.7721 255.3578 15.73222236  1304,6727.831999999999,91.532,351.69199999999995,347.702,0.0
53426.0,STARLINK-4558,PAYLOAD,2022-09-29 06:00:00,15.7320287,0.000288,53.2171,0.3231,11.278,341.7882,-0.00054681,-0.00076696,0.0,0 STARLINK-4558,1 53426U 22097AQ  22272.25001157 -.00076696  00000-0 -54681-3 0  9999,2 53426  53.2171   0.3231 0002880  11.2780 341.7882 15.73202870  8306,6727.887,91.533,351.69,347.814,0.0
53426.0,STARLINK-4558,PAYLOAD,2022-09-29 14:00:01,15.73114022,0.0003213,53.2169,358.6758,10.142,71.8284,0.00040916,0.00056992,0.0,0 STARLINK-4558,1 53426U 22097AQ  22272.58334491  .00056992  00000-0  40916-3 0  9996,2 53426  53.2169 358.6758 0003213  10.1420  71.8284 15.73114022  1307,6728.14,91.538,352.167,347.844,0.0
53426.0,STARLINK-4558,PAYLOAD,2022-09-29 22:00:00,15.73181202,0.0003168999999999,53.2164,357.0252,10.3954,160.4263,0.00015277,0.00020858,0.0,0 STARLINK-4558,1 53426U 22097AQ  22272.91667824  .00020858  00000-0  15277-3 0  9996,2 53426  53.2164 357.0252 0003169  10.3954 160.4263 15.73181202  8413,6727.949000000001,91.534,351.946,347.682,0.0
53426.0,STARLINK-4558,PAYLOAD,2022-09-30 14:00:01,15.73272893,0.0003336,53.2165,353.7275,11.0835,337.6224,-0.00021045,-0.00030155,0.0,0 STARLINK-4558,1 53426U 22097AQ  22273.58334491 -.00030155  00000-0 -21045-3 0  9994,2 53426  53.2165 353.7275 0003336  11.0835 337.6224 15.73272893  1307,6727.687,91.529,351.797,347.30800000000005,0.0
53426.0,STARLINK-4558,PAYLOAD,2022-09-30 16:00:00,15.73247503,0.0003381,53.2164,353.3152,9.8503,91.1154,0.00011697,0.00015861,0.0,0 STARLINK-4558,1 53426U 22097AQ  22273.66667824  .00015861  00000-0  11697-3 0  9999,2 53426  53.2164 353.3152 0003381   9.8503  91.1154 15.73247503  8539,6727.76,91.53,351.899,347.35,0.0
53426.0,STARLINK-4558,PAYLOAD,2022-09-30 22:00:00,15.73277467,0.0003297,53.2166,352.0763,9.9598,67.752,-0.00046618,-0.00065778,0.0,0 STARLINK-4558,1 53426U 22097AQ  22273.91667824 -.00065778  00000-0 -46618-3 0  9992,2 53426  53.2166 352.0763 0003297   9.9598  67.7520 15.73277467  1302,6727.674,91.529,351.75699999999995,347.321,0.0
53426.0,STARLINK-4558,PAYLOAD,2022-10-01 06:00:00,15.73234951,0.0003248,53.2169,350.426,12.209,154.495,-3.3734e-05,-5.363e-05,0.0,0 STARLINK-4558,1 53426U 22097AQ  22274.25001157 -.00005363  00000-0 -33734-4 0  9991,2 53426  53.2169 350.4260 0003248  12.2090 154.4950 15.73234951  8623,6727.795999999999,91.531,351.846,347.475,0.0
53426.0,STARLINK-4558,PAYLOAD,2022-10-01 14:00:01,15.73233691,0.0003531,53.2168,348.7784,8.9728,246.6823,-6.8023e-05,-0.00010176,0.0,0 STARLINK-4558,1 53426U 22097AQ  22274.58334491 -.00010176  00000-0 -68023-4 0  9994,2 53426  53.2168 348.7784 0003531   8.9728 246.6823 15.73233691  1309,6727.799,91.531,352.04,347.289,0.0
53426.0,STARLINK-4558,PAYLOAD,2022-10-01 22:00:00,15.73229641,0.000337,53.2164,347.1273,5.2132,339.4076,-0.0010609999999999,-0.00147198,0.0,0 STARLINK-4558,1 53426U 22097AQ  22274.91667824 -.00147198  00000-0 -10610-2 0  9992,2 53426  53.2164 347.1273 0003370   5.2132 339.4076 15.73229641  8725,6727.811,91.531,351.9430000000001,347.408,0.0
53426.0,STARLINK-4558,PAYLOAD,2022-10-02 06:00:00,15.73124479,0.0003335,53.2165,345.4774,7.1336,66.3899,0.00022975,0.00031647,0.0,0 STARLINK-4558,1 53426U 22097AQ  22275.25001157  .00031647  00000-0  22975-3 0  9998,2 53426  53.2165 345.4774 0003335   7.1336  66.3899 15.73124479  8789,6728.11,91.538,352.219,347.732,0.0
53426.0,STARLINK-4558,PAYLOAD,2022-10-02 14:00:01,15.73121927,0.0003688999999999,53.2165,343.83,7.9951,154.3806,0.00073217,0.00103084,0.0,0 STARLINK-4558,1 53426U 22097AQ  22275.58334491  .00103084  00000-0  73217-3 0  9994,2 53426  53.2165 343.8300 0003689   7.9951 154.3806 15.73121927  1301,6728.118,91.538,352.465,347.501,0.0
53426.0,STARLINK-4558,PAYLOAD,2022-10-02 22:00:00,15.7320643,0.0003604,53.2168,342.1789,8.5013,242.7581,0.00040572,0.00056735,0.0,0 STARLINK-4558,1 53426U 22097AQ  22275.91667824  .00056735  00000-0  40572-3 0  9998,2 53426  53.2168 342.1789 0003604   8.5013 242.7581 15.73206430  1305,6727.877,91.533,352.167,347.31699999999995,0.0
53426.0,STARLINK-4558,PAYLOAD,2022-10-03 14:00:01,15.73254696,0.0003874,53.217,338.8812,6.9221,62.3017,0.00023242,0.00032208,0.0,0 STARLINK-4558,1 53426U 22097AQ  22276.58334491  .00032208  00000-0  23242-3 0  9997,2 53426  53.2170 338.8812 0003874   6.9221  62.3017 15.73254696  1306,6727.739000000001,91.53,352.211,346.99800000000016,0.0
53426.0,STARLINK-4558,PAYLOAD,2022-10-03 22:00:00,15.73273506,0.0003728999999999,53.2167,337.2298,6.0508,152.1879,-0.00063582,-0.00089237,0.0,0 STARLINK-4558,1 53426U 22097AQ  22276.91667824 -.00089237  00000-0 -63582-3 0  9990,2 53426  53.2167 337.2298 0003729   6.0508 152.1879 15.73273506  1306,6727.686,91.529,352.059,347.042,0.0
53426.0,STARLINK-4558,PAYLOAD,2022-10-04 14:00:01,15.73159666,0.0003978,53.2167,333.9290000000001,3.6565,332.5012,4.929e-05,6.289e-05,0.0,0 STARLINK-4558,1 53426U 22097AQ  22277.58334491  .00006289  00000-0  49290-4 0  9990,2 53426  53.2167 333.9290 0003978   3.6565 332.5012 15.73159666  1306,6728.01,91.536,352.552,347.199,0.0
53426.0,STARLINK-4558,PAYLOAD,2022-10-04 16:00:00,15.73169933,0.0003993999999999,53.2162,333.5141,3.0525,85.3251,-0.00012765,-0.00018485,0.0,0 STARLINK-4558,1 53426U 22097AQ  22277.66667824 -.00018485  00000-0 -12765-3 0  9997,2 53426  53.2162 333.5141 0003994   3.0525  85.3251 15.73169933  9168,6727.981,91.535,352.533,347.159,0.0
53426.0,STARLINK-4558,PAYLOAD,2022-10-04 22:00:00,15.73166874,0.0003831,53.2169,332.2813,1.6468,63.4308,0.00019323,0.00026552,0.0,0 STARLINK-4558,1 53426U 22097AQ  22277.91667824  .00026552  00000-0  19323-3 0  9994,2 53426  53.2169 332.2813 0003831   1.6468  63.4308 15.73166874  1306,6727.99,91.535,352.432,347.277,0.0
53426.0,STARLINK-4558,PAYLOAD,2022-10-05 14:00:01,15.73132685,0.0004154,53.2169,328.9843,3.095,239.8482,0.00051658,0.00072321,0.0,0 STARLINK-4558,1 53426U 22097AQ  22278.58335648  .00072321  00000-0  51658-3 0  9996,2 53426  53.2169 328.9843 0004154   3.0950 239.8482 15.73132685  9305,6728.087,91.537,352.747,347.157,0.0
53426.0,STARLINK-4558,PAYLOAD,2022-10-05 22:00:00,15.73135385,0.0003883,53.2166,327.3331,2.6899,329.0807,0.00056426,0.00079122,0.0,0 STARLINK-4558,1 53426U 22097AQ  22278.91667824  .00079122  00000-0  56426-3 0  9991,2 53426  53.2166 327.3331 0003883   2.6899 329.0807 15.73135385  1307,6728.079000000002,91.537,352.557,347.332,0.0
53426.0,STARLINK-4558,PAYLOAD,2022-10-06 14:00:01,15.73193248,0.0004219999999999,53.2161,324.0363,359.9551,149.6992,0.00042651,0.00059668,0.0,0 STARLINK-4558,1 53426U 22097AQ  22279.58334491  .00059668  00000-0  42651-3 0  9994,2 53426  53.2161 324.0363 0004220 359.9551 149.6992 15.73193248  1303,6727.9140000000025,91.534,352.619,346.94,0.0
